{"type": "FeatureCollection", "features": [ {"type": "Feature", "properties": {"norad_id": 33867, "name": "IRIDIUM 33 DEB", "group": "iridium-33-debris", "lat": -82.78087329232872, "lon": -156.47266542190758, "alt_km": 409.60967542951676, "timestamp": "2025-12-06T09:34:17.299142+00:00", "meta": {"OBJECT_NAME": "IRIDIUM 33 DEB", "OBJECT_ID": "1997-051AL", "EPOCH": "2025-12-05T10:51:01.904832", "MEAN_MOTION": 15.56599814, "ECCENTRICITY": 0.00122699, "INCLINATION": 86.362, "RA_OF_ASC_NODE": 353.8586, "ARG_OF_PERICENTER": 94.994, "MEAN_ANOMALY": 265.2724, "EPHEMERIS_TYPE": 0, "CLASSIFICATION_TYPE": "U", "NORAD_CAT_ID": 33867, "ELEMENT_SET_NO": 999, "REV_AT_EPOCH": 89397, "BSTAR": 0.0089580723, "MEAN_MOTION_DOT": 0.00693819, "MEAN_MOTION_DDOT": 0}, "tle": {"line1": "1 33867U 97051AL  25339.45210538  .00693819  00000+0  89581-2 0  9997", "line2": "2 33867  86.3620 353.8586 0012269  94.9940 265.2724 15.56599814893974"}}, "geometry": {"type": "Point", "coordinates": [-156.47266542190758, -82.78087329232872]}}, {"type": "Feature", "properties": {"norad_id": 33870, "name": "IRIDIUM 33 DEB", "group": "iridium-33-debris", "lat": 76.72662696870029, "lon": -134.60770307471978, "alt_km": 733.8885292760606, "timestamp": "2025-12-06T09:34:17.299152+00:00", "meta": {"OBJECT_NAME": "IRIDIUM 33 DEB", "OBJECT_ID": "1997-051AP", "EPOCH": "2025-12-05T23:57:08.939232", "MEAN_MOTION": 14.45793043, "ECCENTRICITY": 0.00207613, "INCLINATION": 86.3755, "RA_OF_ASC_NODE": 61.1507, "ARG_OF_PERICENTER": 200.4996, "MEAN_ANOMALY": 337.759, "EPHEMERIS_TYPE": 0, "CLASSIFICATION_TYPE": "U", "NORAD_CAT_ID": 33870, "ELEMENT_SET_NO": 999, "REV_AT_EPOCH": 88039, "BSTAR": 0.0014705365, "MEAN_MOTION_DOT": 5.247e-05, "MEAN_MOTION_DDOT": 0}, "tle": {"line1": "1 33870U 97051AP  25339.99802013  .00005247  00000+0  14705-2 0  9993", "line2": "2 33870  86.3755  61.1507 0020761 200.4996 337.7590 14.45793043880395"}}, "geometry": {"type": "Point", "coordinates": [-134.60770307471978, 76.72662696870029]}}, {"type": "Feature", "properties": {"norad_id": 33881, "name": "IRIDIUM 33 DEB", "group": "iridium-33-debris", "lat": 85.69224778102605, "lon": 166.50846656473283, "alt_km": 710.2231416949462, "timestamp": "2025-12-06T09:34:17.299163+00:00", "meta": {"OBJECT_NAME": "IRIDIUM 33 DEB", "OBJECT_ID": "1997-051BA", "EPOCH": "2025-12-05T20:31:44.051808", "MEAN_MOTION": 14.56380103, "ECCENTRICITY": 0.006125, "INCLINATION": 86.3871, "RA_OF_ASC_NODE": 109.733, "ARG_OF_PERICENTER": 197.0715, "MEAN_ANOMALY": 283.839, "EPHEMERIS_TYPE": 0, "CLASSIFICATION_TYPE": "U", "NORAD_CAT_ID": 33881, "ELEMENT_SET_NO": 999, "REV_AT_EPOCH": 87400, "BSTAR": 0.0035632862, "MEAN_MOTION_DOT": 0.00016254, "MEAN_MOTION_DDOT": 0}, "tle": {"line1": "1 33881U 97051BA  25339.85537097  .00016254  00000+0  35633-2 0  9990", "line2": "2 33881  86.3871 109.7330 0061250 197.0715 283.8390 14.56380103874008"}}, "geometry": {"type": "Point", "coordinates": [166.50846656473283, 85.69224778102605]}}, {"type": "Feature", "properties": {"norad_id": 33884, "name": "IRIDIUM 33 DEB", "group": "iridium-33-debris", "lat": -79.74845443999028, "lon": -7.873753643658686, "alt_km": 642.7088186096198, "timestamp": "2025-12-06T09:34:17.299174+00:00", "meta": {"OBJECT_NAME": "IRIDIUM 33 DEB", "OBJECT_ID": "1997-051BD", "EPOCH": "2025-12-05T13:29:05.481600", "MEAN_MOTION": 14.77223176, "ECCENTRICITY": 0.0010405, "INCLINATION": 86.3691, "RA_OF_ASC_NODE": 13.0584, "ARG_OF_PERICENTER": 350.5114, "MEAN_ANOMALY": 161.234, "EPHEMERIS_TYPE": 0, "CLASSIFICATION_TYPE": "U", "NORAD_CAT_ID": 33884, "ELEMENT_SET_NO": 999, "REV_AT_EPOCH": 88741, "BSTAR": 0.0024048177, "MEAN_MOTION_DOT": 0.00017096, "MEAN_MOTION_DDOT": 0}, "tle": {"line1": "1 33884U 97051BD  25339.56186900  .00017096  00000+0  24048-2 0  9997", "line2": "2 33884  86.3691  13.0584 0010405 350.5114 161.2340 14.77223176887416"}}, "geometry": {"type": "Point", "coordinates": [-7.873753643658686, -79.74845443999028]}}, {"type": "Feature", "properties": {"norad_id": 33886, "name": "IRIDIUM 33 DEB", "group": "iridium-33-debris", "lat": 66.27078102819405, "lon": 78.17051267653693, "alt_km": 773.3690714670247, "timestamp": "2025-12-06T09:34:17.299185+00:00", "meta": {"OBJECT_NAME": "IRIDIUM 33 DEB", "OBJECT_ID": "1997-051BF", "EPOCH": "2025-12-06T00:02:04.981920", "MEAN_MOTION": 14.36038974, "ECCENTRICITY": 0.00120797, "INCLINATION": 86.3831, "RA_OF_ASC_NODE": 70.0646, "ARG_OF_PERICENTER": 267.6196, "MEAN_ANOMALY": 265.9363, "EPHEMERIS_TYPE": 0, "CLASSIFICATION_TYPE": "U", "NORAD_CAT_ID": 33886, "ELEMENT_SET_NO": 999, "REV_AT_EPOCH": 87955, "BSTAR": 0.0003752743, "MEAN_MOTION_DOT": 1.111e-05, "MEAN_MOTION_DDOT": 0}, "tle": {"line1": "1 33886U 97051BF  25340.00144655  .00001111  00000+0  37527-3 0  9999", "line2": "2 33886  86.3831  70.0646 0012079 267.6196 265.9363 14.36038974879551"}}, "geometry": {"type": "Point", "coordinates": [78.17051267653693, 66.27078102819405]}}, {"type": "Feature", "properties": {"norad_id": 33887, "name": "IRIDIUM 33 DEB", "group": "iridium-33-debris", "lat": -23.928207834934092, "lon": 4.481840546709406, "alt_km": 772.7032067103983, "timestamp": "2025-12-06T09:34:17.299196+00:00", "meta": {"OBJECT_NAME": "IRIDIUM 33 DEB", "OBJECT_ID": "1997-051BG", "EPOCH": "2025-12-05T14:14:11.083776", "MEAN_MOTION": 14.37211356, "ECCENTRICITY": 0.00040679, "INCLINATION": 86.3049, "RA_OF_ASC_NODE": 6.472, "ARG_OF_PERICENTER": 260.7094, "MEAN_ANOMALY": 229.7298, "EPHEMERIS_TYPE": 0, "CLASSIFICATION_TYPE": "U", "NORAD_CAT_ID": 33887, "ELEMENT_SET_NO": 999, "REV_AT_EPOCH": 88062, "BSTAR": 0.00026275463, "MEAN_MOTION_DOT": 8.01e-06, "MEAN_MOTION_DDOT": 0}, "tle": {"line1": "1 33887U 97051BG  25339.59318384  .00000801  00000+0  26275-3 0  9997", "line2": "2 33887  86.3049   6.4720 0004067 260.7094 229.7298 14.37211356880621"}}, "geometry": {"type": "Point", "coordinates": [4.481840546709406, -23.928207834934092]}}, {"type": "Feature", "properties": {"norad_id": 33953, "name": "IRIDIUM 33 DEB", "group": "iridium-33-debris", "lat": 39.76042117308512, "lon": -126.48352660204742, "alt_km": 693.1695614676892, "timestamp": "2025-12-06T09:34:17.299206+00:00", "meta": {"OBJECT_NAME": "IRIDIUM 33 DEB", "OBJECT_ID": "1997-051BN", "EPOCH": "2025-12-05T23:50:27.951648", "MEAN_MOTION": 14.55218556, "ECCENTRICITY": 0.00185309, "INCLINATION": 86.3851, "RA_OF_ASC_NODE": 56.7073, "ARG_OF_PERICENTER": 123.3499, "MEAN_ANOMALY": 54.0321, "EPHEMERIS_TYPE": 0, "CLASSIFICATION_TYPE": "U", "NORAD_CAT_ID": 33953, "ELEMENT_SET_NO": 999, "REV_AT_EPOCH": 88205, "BSTAR": 0.0020564879, "MEAN_MOTION_DOT": 8.94e-05, "MEAN_MOTION_DDOT": 0}, "tle": {"line1": "1 33953U 97051BN  25339.99337907  .00008940  00000+0  20565-2 0  9994", "line2": "2 33953  86.3851  56.7073 0018530 123.3499  54.0321 14.55218556882052"}}, "geometry": {"type": "Point", "coordinates": [-126.48352660204742, 39.76042117308512]}}, {"type": "Feature", "properties": {"norad_id": 33960, "name": "IRIDIUM 33 DEB", "group": "iridium-33-debris", "lat": -11.86684352515938, "lon": -68.28705342125326, "alt_km": 618.3503345621002, "timestamp": "2025-12-06T09:34:17.299217+00:00", "meta": {"OBJECT_NAME": "IRIDIUM 33 DEB", "OBJECT_ID": "1997-051BV", "EPOCH": "2025-12-05T20:56:06.827136", "MEAN_MOTION": 14.84637403, "ECCENTRICITY": 0.00073215, "INCLINATION": 86.2534, "RA_OF_ASC_NODE": 292.7499, "ARG_OF_PERICENTER": 71.7421, "MEAN_ANOMALY": 344.3493, "EPHEMERIS_TYPE": 0, "CLASSIFICATION_TYPE": "U", "NORAD_CAT_ID": 33960, "ELEMENT_SET_NO": 999, "REV_AT_EPOCH": 88765, "BSTAR": 0.005328277, "MEAN_MOTION_DOT": 0.00045322, "MEAN_MOTION_DDOT": 0}, "tle": {"line1": "1 33960U 97051BV  25339.87230124  .00045322  00000+0  53283-2 0  9990", "line2": "2 33960  86.2534 292.7499 0007321  71.7421 344.3493 14.84637403887652"}}, "geometry": {"type": "Point", "coordinates": [-68.28705342125326, -11.86684352515938]}}, {"type": "Feature", "properties": {"norad_id": 33966, "name": "IRIDIUM 33 DEB", "group": "iridium-33-debris", "lat": 35.803724567491805, "lon": 51.35645877663307, "alt_km": 729.4458658608964, "timestamp": "2025-12-06T09:34:17.299227+00:00", "meta": {"OBJECT_NAME": "IRIDIUM 33 DEB", "OBJECT_ID": "1997-051CB", "EPOCH": "2025-12-05T22:37:28.322688", "MEAN_MOTION": 14.49549989, "ECCENTRICITY": 0.00066426, "INCLINATION": 86.3931, "RA_OF_ASC_NODE": 48.9443, "ARG_OF_PERICENTER": 212.4667, "MEAN_ANOMALY": 324.8201, "EPHEMERIS_TYPE": 0, "CLASSIFICATION_TYPE": "U", "NORAD_CAT_ID": 33966, "ELEMENT_SET_NO": 999, "REV_AT_EPOCH": 88343, "BSTAR": 0.0010602541, "MEAN_MOTION_DOT": 4.086e-05, "MEAN_MOTION_DDOT": 0}, "tle": {"line1": "1 33966U 97051CB  25339.94268892  .00004086  00000+0  10603-2 0  9998", "line2": "2 33966  86.3931  48.9443 0006642 212.4667 324.8201 14.49549989883435"}}, "geometry": {"type": "Point", "coordinates": [51.35645877663307, 35.803724567491805]}}, {"type": "Feature", "properties": {"norad_id": 34071, "name": "IRIDIUM 33 DEB", "group": "iridium-33-debris", "lat": 74.24864205847035, "lon": -172.5098961681197, "alt_km": 714.0713069938784, "timestamp": "2025-12-06T09:34:17.299237+00:00", "meta": {"OBJECT_NAME": "IRIDIUM 33 DEB", "OBJECT_ID": "1997-051CE", "EPOCH": "2025-12-05T21:29:21.633792", "MEAN_MOTION": 14.49417902, "ECCENTRICITY": 0.00096365, "INCLINATION": 86.346, "RA_OF_ASC_NODE": 20.8035, "ARG_OF_PERICENTER": 126.1307, "MEAN_ANOMALY": 234.0791, "EPHEMERIS_TYPE": 0, "CLASSIFICATION_TYPE": "U", "NORAD_CAT_ID": 34071, "ELEMENT_SET_NO": 999, "REV_AT_EPOCH": 88235, "BSTAR": 0.0011002189, "MEAN_MOTION_DOT": 4.229e-05, "MEAN_MOTION_DDOT": 0}, "tle": {"line1": "1 34071U 97051CE  25339.89538928  .00004229  00000+0  11002-2 0  9993", "line2": "2 34071  86.3460  20.8035 0009636 126.1307 234.0791 14.49417902882359"}}, "geometry": {"type": "Point", "coordinates": [-172.5098961681197, 74.24864205847035]}}]}